[{"OBJECT_NAME":"ROBUSTA-3A (MEDITERRANEE)","OBJECT_ID":"2024-128J","EPOCH":"2026-03-09T17:32:19.735008","MEAN_MOTION":15.10076246,"ECCENTRICITY":0.0051919,"INCLINATION":61.9866,"RA_OF_ASC_NODE":199.5396,"ARG_OF_PERICENTER":108.1058,"MEAN_ANOMALY":252.5701,"EPHEMERIS_TYPE":0,"CLASSIFICATION_TYPE":"U","NORAD_CAT_ID":60243,"ELEMENT_SET_NO":999,"REV_AT_EPOCH":9139,"BSTAR":0.00068950735,"MEAN_MOTION_DOT":0.00011442,"MEAN_MOTION_DDOT":0},{"OBJECT_NAME":"STARLINK-34022","OBJECT_ID":"2025-094C","EPOCH":"2026-03-09T21:49:44.513472","MEAN_MOTION":14.98332442,"ECCENTRICITY":0.00030351,"INCLINATION":70.0017,"RA_OF_ASC_NODE":233.9987,"ARG_OF_PERICENTER":264.1312,"MEAN_ANOMALY":95.9501,"EPHEMERIS_TYPE":0,"CLASSIFICATION_TYPE":"U","NORAD_CAT_ID":63866,"ELEMENT_SET_NO":999,"REV_AT_EPOCH":4723,"BSTAR":0.00026420549,"MEAN_MOTION_DOT":3.061e-5,"MEAN_MOTION_DDOT":0}]
