ROBUSTA-3A (MEDITERRAN*)
1 60243U 24128J   26068.73078397  .00011442  00000+0  68951-3 0  9991
2 60243  61.9866 199.5396 0051919 108.1058 252.5701 15.10076246 91399
STARLINK-34022          
1 63866U 25094C   26068.90954298  .00003061  00000+0  26421-3 0  9994
2 63866  70.0017 233.9987 0003035 264.1312  95.9501 14.98332442 47232
